CBERS 4                 
1 40336U 14079A   21060.18534604 -.00000005  00000-0  13492-4 0  9996
2 40336  98.5332 135.5088 0001936  82.8012 277.3401 14.35425231326519
CZ-4B R/B               
1 40337U 14079B   21060.18343689  .00000135  00000-0  17087-4 0  9995
2 40337  98.4375 329.2426 0175895 194.7732 164.8308 14.89559747338611
